[{"OBJECT_NAME":"ONEWEB-0599","OBJECT_ID":"2023-004R","EPOCH":"2026-03-09T22:16:37.236000","MEAN_MOTION":13.17648133,"ECCENTRICITY":0.00018792,"INCLINATION":87.9147,"RA_OF_ASC_NODE":25.5758,"ARG_OF_PERICENTER":87.9566,"MEAN_ANOMALY":272.1781,"EPHEMERIS_TYPE":0,"CLASSIFICATION_TYPE":"U","NORAD_CAT_ID":55155,"ELEMENT_SET_NO":999,"REV_AT_EPOCH":15441,"BSTAR":0.00019504244,"MEAN_MOTION_DOT":8.9e-7,"MEAN_MOTION_DDOT":0},{"OBJECT_NAME":"SL-14 DEB","OBJECT_ID":"1991-056CW","EPOCH":"2026-03-09T06:57:53.934048","MEAN_MOTION":13.24406991,"ECCENTRICITY":0.00298115,"INCLINATION":82.555,"RA_OF_ASC_NODE":191.8795,"ARG_OF_PERICENTER":269.3545,"MEAN_ANOMALY":90.4166,"EPHEMERIS_TYPE":0,"CLASSIFICATION_TYPE":"U","NORAD_CAT_ID":45652,"ELEMENT_SET_NO":999,"REV_AT_EPOCH":28562,"BSTAR":0.0022379031,"MEAN_MOTION_DOT":9.75e-6,"MEAN_MOTION_DDOT":0}]
